[{"OBJECT_NAME":"STARLINK-5694","OBJECT_ID":"2023-015AJ","EPOCH":"2026-03-09T22:00:01.999584","MEAN_MOTION":15.13782527,"ECCENTRICITY":0.0001792,"INCLINATION":42.9997,"RA_OF_ASC_NODE":337.4437,"ARG_OF_PERICENTER":242.0585,"MEAN_ANOMALY":51.248,"EPHEMERIS_TYPE":0,"CLASSIFICATION_TYPE":"U","NORAD_CAT_ID":55481,"ELEMENT_SET_NO":999,"REV_AT_EPOCH":573,"BSTAR":0.0026769455,"MEAN_MOTION_DOT":0.00049282,"MEAN_MOTION_DDOT":0},{"OBJECT_NAME":"LEGION 6","OBJECT_ID":"2025-025B","EPOCH":"2026-03-09T22:31:51.248640","MEAN_MOTION":15.16188393,"ECCENTRICITY":0.00128841,"INCLINATION":45.002,"RA_OF_ASC_NODE":22.5436,"ARG_OF_PERICENTER":290.9928,"MEAN_ANOMALY":68.9572,"EPHEMERIS_TYPE":0,"CLASSIFICATION_TYPE":"U","NORAD_CAT_ID":62901,"ELEMENT_SET_NO":999,"REV_AT_EPOCH":6057,"BSTAR":0.00036964993,"MEAN_MOTION_DOT":7.014e-5,"MEAN_MOTION_DDOT":0}]
